[{"OBJECT_NAME":"QIANFAN-86","OBJECT_ID":"2025-046P","EPOCH":"2026-03-05T21:03:47.917152","MEAN_MOTION":13.51001636,"ECCENTRICITY":0.00092748,"INCLINATION":88.9761,"RA_OF_ASC_NODE":311.1989,"ARG_OF_PERICENTER":251.3226,"MEAN_ANOMALY":108.6918,"EPHEMERIS_TYPE":0,"CLASSIFICATION_TYPE":"U","NORAD_CAT_ID":63172,"ELEMENT_SET_NO":999,"REV_AT_EPOCH":5877,"BSTAR":0.00028869789,"MEAN_MOTION_DOT":1.98e-6,"MEAN_MOTION_DDOT":0},{"OBJECT_NAME":"QIANFAN-87","OBJECT_ID":"2025-046Q","EPOCH":"2026-03-05T22:09:05.325120","MEAN_MOTION":13.51009905,"ECCENTRICITY":0.00099645,"INCLINATION":88.9758,"RA_OF_ASC_NODE":311.3025,"ARG_OF_PERICENTER":245.4073,"MEAN_ANOMALY":114.604,"EPHEMERIS_TYPE":0,"CLASSIFICATION_TYPE":"U","NORAD_CAT_ID":63173,"ELEMENT_SET_NO":999,"REV_AT_EPOCH":5871,"BSTAR":0.00026961789,"MEAN_MOTION_DOT":1.86e-6,"MEAN_MOTION_DDOT":0},{"OBJECT_NAME":"QIANFAN-88","OBJECT_ID":"2025-046R","EPOCH":"2026-03-05T22:32:35.901024","MEAN_MOTION":13.50998304,"ECCENTRICITY":0.00103358,"INCLINATION":88.976,"RA_OF_ASC_NODE":311.2575,"ARG_OF_PERICENTER":255.1259,"MEAN_ANOMALY":104.8748,"EPHEMERIS_TYPE":0,"CLASSIFICATION_TYPE":"U","NORAD_CAT_ID":63174,"ELEMENT_SET_NO":999,"REV_AT_EPOCH":5874,"BSTAR":0.00027443397,"MEAN_MOTION_DOT":1.89e-6,"MEAN_MOTION_DDOT":0},{"OBJECT_NAME":"QIANFAN-89","OBJECT_ID":"2025-046S","EPOCH":"2026-03-05T21:39:29.807712","MEAN_MOTION":13.51008802,"ECCENTRICITY":0.00148305,"INCLINATION":88.9761,"RA_OF_ASC_NODE":311.4505,"ARG_OF_PERICENTER":244.4932,"MEAN_ANOMALY":115.4685,"EPHEMERIS_TYPE":0,"CLASSIFICATION_TYPE":"U","NORAD_CAT_ID":63175,"ELEMENT_SET_NO":999,"REV_AT_EPOCH":5863,"BSTAR":0.00024754739,"MEAN_MOTION_DOT":1.72e-6,"MEAN_MOTION_DDOT":0},{"OBJECT_NAME":"QIANFAN-90","OBJECT_ID":"2025-046T","EPOCH":"2026-03-05T22:21:01.186272","MEAN_MOTION":13.51008681,"ECCENTRICITY":0.00118028,"INCLINATION":88.976,"RA_OF_ASC_NODE":311.4199,"ARG_OF_PERICENTER":242.286,"MEAN_ANOMALY":117.7094,"EPHEMERIS_TYPE":0,"CLASSIFICATION_TYPE":"U","NORAD_CAT_ID":63176,"ELEMENT_SET_NO":999,"REV_AT_EPOCH":5865,"BSTAR":0.00029521199,"MEAN_MOTION_DOT":2.03e-6,"MEAN_MOTION_DDOT":0},{"OBJECT_NAME":"QIANFAN-91","OBJECT_ID":"2025-233A","EPOCH":"2026-03-05T23:07:52.617216","MEAN_MOTION":13.51004549,"ECCENTRICITY":0.00019457,"INCLINATION":88.993,"RA_OF_ASC_NODE":53.6259,"ARG_OF_PERICENTER":92.3376,"MEAN_ANOMALY":267.7998,"EPHEMERIS_TYPE":0,"CLASSIFICATION_TYPE":"U","NORAD_CAT_ID":66033,"ELEMENT_SET_NO":999,"REV_AT_EPOCH":1924,"BSTAR":3.5094405e-5,"MEAN_MOTION_DOT":3.5e-7,"MEAN_MOTION_DDOT":0},{"OBJECT_NAME":"QIANFAN-92","OBJECT_ID":"2025-233B","EPOCH":"2026-03-05T23:19:38.178624","MEAN_MOTION":13.5100594,"ECCENTRICITY":0.00019468,"INCLINATION":88.9914,"RA_OF_ASC_NODE":53.6137,"ARG_OF_PERICENTER":85.8851,"MEAN_ANOMALY":274.2522,"EPHEMERIS_TYPE":0,"CLASSIFICATION_TYPE":"U","NORAD_CAT_ID":66034,"ELEMENT_SET_NO":999,"REV_AT_EPOCH":1924,"BSTAR":1.7804896e-5,"MEAN_MOTION_DOT":2.4e-7,"MEAN_MOTION_DDOT":0},{"OBJECT_NAME":"QIANFAN-93","OBJECT_ID":"2025-233C","EPOCH":"2026-03-05T23:31:29.537472","MEAN_MOTION":13.51004922,"ECCENTRICITY":0.00019262,"INCLINATION":88.9941,"RA_OF_ASC_NODE":53.6369,"ARG_OF_PERICENTER":90.7418,"MEAN_ANOMALY":269.3954,"EPHEMERIS_TYPE":0,"CLASSIFICATION_TYPE":"U","NORAD_CAT_ID":66035,"ELEMENT_SET_NO":999,"REV_AT_EPOCH":1924,"BSTAR":3.0984094e-5,"MEAN_MOTION_DOT":3.2e-7,"MEAN_MOTION_DDOT":0},{"OBJECT_NAME":"QIANFAN-94","OBJECT_ID":"2025-233D","EPOCH":"2026-03-05T23:13:29.625600","MEAN_MOTION":13.50991922,"ECCENTRICITY":0.00020522,"INCLINATION":88.9938,"RA_OF_ASC_NODE":53.5449,"ARG_OF_PERICENTER":87.8979,"MEAN_ANOMALY":272.2407,"EPHEMERIS_TYPE":0,"CLASSIFICATION_TYPE":"U","NORAD_CAT_ID":66036,"ELEMENT_SET_NO":999,"REV_AT_EPOCH":1929,"BSTAR":2.3303004e-5,"MEAN_MOTION_DOT":2.7e-7,"MEAN_MOTION_DDOT":0},{"OBJECT_NAME":"QIANFAN-95","OBJECT_ID":"2025-233E","EPOCH":"2026-03-05T23:25:22.343520","MEAN_MOTION":13.51015287,"ECCENTRICITY":0.00020597,"INCLINATION":88.9936,"RA_OF_ASC_NODE":53.0903,"ARG_OF_PERICENTER":93.4963,"MEAN_ANOMALY":266.6423,"EPHEMERIS_TYPE":0,"CLASSIFICATION_TYPE":"U","NORAD_CAT_ID":66037,"ELEMENT_SET_NO":999,"REV_AT_EPOCH":1954,"BSTAR":1.8829639e-5,"MEAN_MOTION_DOT":2.4e-7,"MEAN_MOTION_DDOT":0},{"OBJECT_NAME":"QIANFAN-96","OBJECT_ID":"2025-233F","EPOCH":"2026-03-05T22:14:31.917120","MEAN_MOTION":13.51004702,"ECCENTRICITY":0.0001953,"INCLINATION":88.9933,"RA_OF_ASC_NODE":53.6413,"ARG_OF_PERICENTER":94.3729,"MEAN_ANOMALY":265.7645,"EPHEMERIS_TYPE":0,"CLASSIFICATION_TYPE":"U","NORAD_CAT_ID":66038,"ELEMENT_SET_NO":999,"REV_AT_EPOCH":1923,"BSTAR":2.8316676e-5,"MEAN_MOTION_DOT":3.0e-7,"MEAN_MOTION_DDOT":0},{"OBJECT_NAME":"QIANFAN-97","OBJECT_ID":"2025-233G","EPOCH":"2026-03-05T23:37:27.757920","MEAN_MOTION":13.51004097,"ECCENTRICITY":0.00019426,"INCLINATION":88.9936,"RA_OF_ASC_NODE":53.6161,"ARG_OF_PERICENTER":92.1649,"MEAN_ANOMALY":267.9725,"EPHEMERIS_TYPE":0,"CLASSIFICATION_TYPE":"U","NORAD_CAT_ID":66039,"ELEMENT_SET_NO":999,"REV_AT_EPOCH":1925,"BSTAR":2.0063509e-5,"MEAN_MOTION_DOT":2.5e-7,"MEAN_MOTION_DDOT":0},{"OBJECT_NAME":"QIANFAN-98","OBJECT_ID":"2025-233H","EPOCH":"2026-03-05T23:49:14.221344","MEAN_MOTION":13.51004591,"ECCENTRICITY":0.00024481,"INCLINATION":88.9925,"RA_OF_ASC_NODE":53.3574,"ARG_OF_PERICENTER":85.079,"MEAN_ANOMALY":275.064,"EPHEMERIS_TYPE":0,"CLASSIFICATION_TYPE":"U","NORAD_CAT_ID":66040,"ELEMENT_SET_NO":999,"REV_AT_EPOCH":1939,"BSTAR":4.5078617e-5,"MEAN_MOTION_DOT":4.1e-7,"MEAN_MOTION_DDOT":0},{"OBJECT_NAME":"QIANFAN-99","OBJECT_ID":"2025-233J","EPOCH":"2026-03-05T22:08:34.764576","MEAN_MOTION":13.51004872,"ECCENTRICITY":0.00023463,"INCLINATION":88.9936,"RA_OF_ASC_NODE":53.6258,"ARG_OF_PERICENTER":88.7222,"MEAN_ANOMALY":271.4198,"EPHEMERIS_TYPE":0,"CLASSIFICATION_TYPE":"U","NORAD_CAT_ID":66041,"ELEMENT_SET_NO":999,"REV_AT_EPOCH":1924,"BSTAR":4.5154801e-5,"MEAN_MOTION_DOT":4.1e-7,"MEAN_MOTION_DDOT":0},{"OBJECT_NAME":"QIANFAN-100","OBJECT_ID":"2025-233K","EPOCH":"2026-03-05T23:43:20.332992","MEAN_MOTION":13.51005675,"ECCENTRICITY":0.00019261,"INCLINATION":88.9948,"RA_OF_ASC_NODE":53.5345,"ARG_OF_PERICENTER":91.3651,"MEAN_ANOMALY":268.7721,"EPHEMERIS_TYPE":0,"CLASSIFICATION_TYPE":"U","NORAD_CAT_ID":66042,"ELEMENT_SET_NO":999,"REV_AT_EPOCH":1930,"BSTAR":4.5274884e-5,"MEAN_MOTION_DOT":4.1e-7,"MEAN_MOTION_DDOT":0},{"OBJECT_NAME":"QIANFAN-101","OBJECT_ID":"2025-233L","EPOCH":"2026-03-05T23:43:27.943104","MEAN_MOTION":14.2673449,"ECCENTRICITY":0.00169159,"INCLINATION":88.9937,"RA_OF_ASC_NODE":52.4113,"ARG_OF_PERICENTER":117.887,"MEAN_ANOMALY":242.4039,"EPHEMERIS_TYPE":0,"CLASSIFICATION_TYPE":"U","NORAD_CAT_ID":66043,"ELEMENT_SET_NO":999,"REV_AT_EPOCH":1991,"BSTAR":0.00025491649,"MEAN_MOTION_DOT":6.32e-6,"MEAN_MOTION_DDOT":0},{"OBJECT_NAME":"QIANFAN-102","OBJECT_ID":"2025-233M","EPOCH":"2026-03-05T22:26:07.812096","MEAN_MOTION":13.50992488,"ECCENTRICITY":0.00020952,"INCLINATION":88.9934,"RA_OF_ASC_NODE":53.5366,"ARG_OF_PERICENTER":88.4583,"MEAN_ANOMALY":271.6808,"EPHEMERIS_TYPE":0,"CLASSIFICATION_TYPE":"U","NORAD_CAT_ID":66044,"ELEMENT_SET_NO":999,"REV_AT_EPOCH":1929,"BSTAR":3.0722414e-5,"MEAN_MOTION_DOT":3.2e-7,"MEAN_MOTION_DDOT":0}]
