QIANFAN-86              
1 63172U 25046P   26064.87763793  .00000198  00000+0  28870-3 0  9999
2 63172  88.9761 311.1989 0009274 251.3226 108.6918 13.51001636 58771
QIANFAN-87              
1 63173U 25046Q   26064.92297830  .00000186  00000+0  26962-3 0  9997
2 63173  88.9758 311.3025 0009964 245.4073 114.6040 13.51009905 58715
QIANFAN-88              
1 63174U 25046R   26064.93930441  .00000189  00000+0  27443-3 0  9999
2 63174  88.9760 311.2575 0010335 255.1259 104.8748 13.50998304 58744
QIANFAN-89              
1 63175U 25046S   26064.90242833  .00000172  00000+0  24755-3 0  9993
2 63175  88.9761 311.4505 0014830 244.4932 115.4685 13.51008802 58636
QIANFAN-90              
1 63176U 25046T   26064.93126373  .00000203  00000+0  29521-3 0  9998
2 63176  88.9760 311.4199 0011802 242.2860 117.7094 13.51008681 58653
QIANFAN-91              
1 66033U 25233A   26064.96380344  .00000035  00000+0  35094-4 0  9990
2 66033  88.9930  53.6259 0001945  92.3376 267.7998 13.51004549 19242
QIANFAN-92              
1 66034U 25233B   26064.97196966  .00000024  00000+0  17805-4 0  9995
2 66034  88.9914  53.6137 0001946  85.8851 274.2522 13.51005940 19248
QIANFAN-93              
1 66035U 25233C   26064.98020298  .00000032  00000+0  30984-4 0  9993
2 66035  88.9941  53.6369 0001926  90.7418 269.3954 13.51004922 19241
QIANFAN-94              
1 66036U 25233D   26064.96770400  .00000027  00000+0  23303-4 0  9990
2 66036  88.9938  53.5449 0002052  87.8979 272.2407 13.50991922 19291
QIANFAN-95              
1 66037U 25233E   26064.97595305  .00000024  00000+0  18830-4 0  9997
2 66037  88.9936  53.0903 0002059  93.4963 266.6423 13.51015287 19548
QIANFAN-96              
1 66038U 25233F   26064.92675830  .00000030  00000+0  28317-4 0  9993
2 66038  88.9933  53.6413 0001953  94.3729 265.7645 13.51004702 19232
QIANFAN-97              
1 66039U 25233G   26064.98434905  .00000025  00000+0  20064-4 0  9991
2 66039  88.9936  53.6161 0001942  92.1649 267.9725 13.51004097 19253
QIANFAN-98              
1 66040U 25233H   26064.99252571  .00000041  00000+0  45079-4 0  9992
2 66040  88.9925  53.3574 0002448  85.0790 275.0640 13.51004591 19398
QIANFAN-99              
1 66041U 25233J   26064.92262459  .00000041  00000+0  45155-4 0  9997
2 66041  88.9936  53.6258 0002346  88.7222 271.4198 13.51004872 19244
QIANFAN-100             
1 66042U 25233K   26064.98842978  .00000041  00000+0  45275-4 0  9997
2 66042  88.9948  53.5345 0001926  91.3651 268.7721 13.51005675 19303
QIANFAN-101             
1 66043U 25233L   26064.98851786  .00000632  00000+0  25492-3 0  9999
2 66043  88.9937  52.4113 0016915 117.8870 242.4039 14.26734490 19919
QIANFAN-102             
1 66044U 25233M   26064.93481264  .00000032  00000+0  30722-4 0  9992
2 66044  88.9934  53.5366 0002095  88.4583 271.6808 13.50992488 19295
